{
"type": "FeatureCollection",
"name": "baltimore_csas",
"crs": { "type": "name", "properties": { "name": "urn:ogc:def:crs:OGC:1.3:CRS84" } },
"features": [
{ "type": "Feature", "properties": { "csa_name": "Allendale/Irvington/S. Hilton" }, "geometry": { "type": "Polygon", "coordinates": [ [ [ -76.693682, 39.281443 ], [ -76.692931, 39.281469 ], [ -76.693817, 39.28484 ], [ -76.693892, 39.285755 ], [ -76.695944, 39.288681 ], [ -76.697204, 39.289137 ], [ -76.697993, 39.29306 ], [ -76.696359, 39.293298 ], [ -76.689425, 39.293581 ], [ -76.685995, 39.293711 ], [ -76.681211, 39.293884 ], [ -76.680657, 39.293903 ], [ -76.675574, 39.294097 ], [ -76.67278, 39.294174 ], [ -76.672383, 39.294201 ], [ -76.670465, 39.294257 ], [ -76.669717, 39.294276 ], [ -76.669642, 39.293528 ], [ -76.66653, 39.291022 ], [ -76.665419, 39.289049 ], [ -76.662924, 39.287424 ], [ -76.659436, 39.2862 ], [ -76.659259, 39.285763 ], [ -76.65986, 39.282321 ], [ -76.659026, 39.281384 ], [ -76.660175, 39.280657 ], [ -76.658684, 39.278057 ], [ -76.657608, 39.276041 ], [ -76.659408, 39.274653 ], [ -76.662291, 39.27624 ], [ -76.665061, 39.275043 ], [ -76.667082, 39.276147 ], [ -76.669418, 39.275522 ], [ -76.671563, 39.275933 ], [ -76.675482, 39.274183 ], [ -76.676677, 39.274385 ], [ -76.679977, 39.27716 ], [ -76.681673, 39.276998 ], [ -76.683581, 39.276569 ], [ -76.688192, 39.274505 ], [ -76.689454, 39.272116 ], [ -76.69268, 39.271824 ], [ -76.692922, 39.272496 ], [ -76.694154, 39.275294 ], [ -76.695724, 39.27794 ], [ -76.694633, 39.279374 ], [ -76.694546, 39.280063 ], [ -76.693682, 39.281443 ] ] ] } },
{ "type": "Feature", "properties": { "csa_name": "Beechfield/Ten Hills/West Hills" }, "geometry": { "type": "Polygon", "coordinates": [ [ [ -76.694546, 39.280063 ], [ -76.694633, 39.279374 ], [ -76.695724, 39.27794 ], [ -76.694154, 39.275294 ], [ -76.692922, 39.272496 ], [ -76.69268, 39.271824 ], [ -76.695371, 39.27191 ], [ -76.698892, 39.272705 ], [ -76.711054, 39.277889 ], [ -76.711132, 39.278262 ], [ -76.711232, 39.278797 ], [ -76.711186, 39.287394 ], [ -76.711015, 39.289603 ], [ -76.71118, 39.291566 ], [ -76.711195, 39.291749 ], [ -76.711393, 39.296805 ], [ -76.711255, 39.297362 ], [ -76.711193, 39.29823 ], [ -76.711255, 39.299212 ], [ -76.71121, 39.299778 ], [ -76.711191, 39.302955 ], [ -76.708403, 39.303395 ], [ -76.705844, 39.302712 ], [ -76.706178, 39.299673 ], [ -76.703122, 39.299745 ], [ -76.700272, 39.301934 ], [ -76.697455, 39.301456 ], [ -76.694866, 39.302016 ], [ -76.692406, 39.298946 ], [ -76.693512, 39.297922 ], [ -76.691572, 39.296734 ], [ -76.692248, 39.296117 ], [ -76.689442, 39.294111 ], [ -76.689425, 39.293581 ], [ -76.696359, 39.293298 ], [ -76.697993, 39.29306 ], [ -76.697204, 39.289137 ], [ -76.695944, 39.288681 ], [ -76.693892, 39.285755 ], [ -76.693817, 39.28484 ], [ -76.692931, 39.281469 ], [ -76.693682, 39.281443 ], [ -76.694546, 39.280063 ] ] ] } },
{ "type": "Feature", "properties": { "csa_name": "Belair-Edison" }, "geometry": { "type": "Polygon", "coordinates": [ [ [ -76.557686, 39.321426 ], [ -76.556407, 39.320695 ], [ -76.555024, 39.317956 ], [ -76.557123, 39.316561 ], [ -76.559314, 39.315315 ], [ -76.563668, 39.313642 ], [ -76.566407, 39.313561 ], [ -76.567713, 39.313531 ], [ -76.570447, 39.313451 ], [ -76.573137, 39.314474 ], [ -76.573145, 39.314316 ], [ -76.582164, 39.314243 ], [ -76.581813, 39.314553 ], [ -76.585062, 39.314926 ], [ -76.589881, 39.316123 ], [ -76.594867, 39.317238 ], [ -76.592821, 39.319178 ], [ -76.591683, 39.32026 ], [ -76.590658, 39.321239 ], [ -76.589978, 39.321861 ], [ -76.588534, 39.32283 ], [ -76.58747, 39.323564 ], [ -76.584576, 39.327047 ], [ -76.583874, 39.327913 ], [ -76.578992, 39.331762 ], [ -76.576547, 39.333861 ], [ -76.575302, 39.33222 ], [ -76.569928, 39.32954 ], [ -76.570771, 39.32721 ], [ -76.568236, 39.327416 ], [ -76.567543, 39.326406 ], [ -76.565589, 39.325222 ], [ -76.562605, 39.32467 ], [ -76.561433, 39.323472 ], [ -76.560491, 39.321176 ], [ -76.559759, 39.320994 ], [ -76.557686, 39.321426 ] ] ] } },
{ "type": "Feature", "properties": { "csa_name": "Brooklyn/Curtis Bay/Hawkins Point" }, "geometry": { "type": "Polygon", "coordinates": [ [ [ -76.555349, 39.216972 ], [ -76.550239, 39.217341 ], [ -76.549051, 39.21375 ], [ -76.541801, 39.212277 ], [ -76.534285, 39.213208 ], [ -76.532845, 39.21111 ], [ -76.532399, 39.209993 ], [ -76.533073598867901, 39.2076476380469 ], [ -76.550086, 39.197207 ], [ -76.555173, 39.198872 ], [ -76.563786, 39.201407 ], [ -76.567396, 39.202117 ], [ -76.571114, 39.20382 ], [ -76.577295, 39.205586 ], [ -76.580287, 39.206607 ], [ -76.58328, 39.207404 ], [ -76.584077, 39.207921 ], [ -76.588226, 39.212257 ], [ -76.597437, 39.220806 ], [ -76.597923, 39.221268 ], [ -76.600665, 39.223734 ], [ -76.604725, 39.227916 ], [ -76.606916, 39.229769 ], [ -76.608167, 39.231099 ], [ -76.608874, 39.231797 ], [ -76.609638, 39.232628 ], [ -76.611679, 39.234387 ], [ -76.618612, 39.237398 ], [ -76.615641, 39.239922 ], [ -76.614642, 39.241092 ], [ -76.612489, 39.246606 ], [ -76.609089, 39.249906 ], [ -76.608288, 39.254706 ], [ -76.598588, 39.254806 ], [ -76.589488, 39.254806 ], [ -76.5848877881227, 39.255371176428497 ], [ -76.584465, 39.253792 ], [ -76.580187, 39.251951 ], [ -76.578523, 39.251215 ], [ -76.578523, 39.248822 ], [ -76.571749, 39.245601 ], [ -76.565569, 39.241183 ], [ -76.56343, 39.23787 ], [ -76.562242, 39.235292 ], [ -76.560103, 39.235476 ], [ -76.558439, 39.233727 ], [ -76.558914, 39.232255 ], [ -76.559992, 39.231166 ], [ -76.562479, 39.230414 ], [ -76.562836, 39.229677 ], [ -76.562004, 39.22756 ], [ -76.5645, 39.224614 ], [ -76.559461104150003, 39.220406018130703 ], [ -76.555349, 39.216972 ] ] ] } },
{ "type": "Feature", "properties": { "csa_name": "Canton" }, "geometry": { "type": "Polygon", "coordinates": [ [ [ -76.572821, 39.284364 ], [ -76.571396, 39.284423 ], [ -76.571339, 39.283407 ], [ -76.571261, 39.282382 ], [ -76.571151, 39.280366 ], [ -76.571008, 39.278337 ], [ -76.570877, 39.276421 ], [ -76.572687, 39.275007 ], [ -76.577586, 39.271606 ], [ -76.586588, 39.277306 ], [ -76.58693, 39.283806 ], [ -76.587056, 39.285853 ], [ -76.584332, 39.285956 ], [ -76.584572, 39.289599 ], [ -76.584722, 39.291891 ], [ -76.583325, 39.291956 ], [ -76.581886, 39.292012 ], [ -76.579727, 39.292099 ], [ -76.577623, 39.292178 ], [ -76.576174, 39.292232 ], [ -76.575814, 39.2863 ], [ -76.577242, 39.286242 ], [ -76.57709, 39.284207 ], [ -76.572821, 39.284364 ] ] ] } },
{ "type": "Feature", "properties": { "csa_name": "Cedonia/Frankford" }, "geometry": { "type": "Polygon", "coordinates": [ [ [ -76.534112, 39.328893 ], [ -76.534104, 39.328295 ], [ -76.536023, 39.326705 ], [ -76.540459, 39.321218 ], [ -76.548136, 39.316256 ], [ -76.548938, 39.315888 ], [ -76.549152, 39.316351 ], [ -76.552311, 39.316808 ], [ -76.555024, 39.317956 ], [ -76.556407, 39.320695 ], [ -76.557686, 39.321426 ], [ -76.559759, 39.320994 ], [ -76.560491, 39.321176 ], [ -76.561433, 39.323472 ], [ -76.562605, 39.32467 ], [ -76.565589, 39.325222 ], [ -76.567543, 39.326406 ], [ -76.56412, 39.329249 ], [ -76.561612, 39.331095 ], [ -76.558902, 39.333078 ], [ -76.554456, 39.336185 ], [ -76.552441, 39.337614 ], [ -76.55166, 39.338122 ], [ -76.547409, 39.341103 ], [ -76.545574, 39.342364 ], [ -76.544753, 39.342946 ], [ -76.543673, 39.343707 ], [ -76.541004, 39.345612 ], [ -76.538996, 39.34741 ], [ -76.534763, 39.351196 ], [ -76.529773, 39.355575 ], [ -76.529774, 39.353707 ], [ -76.529453, 39.350723 ], [ -76.529594, 39.349741 ], [ -76.529706, 39.348811 ], [ -76.529783, 39.342151 ], [ -76.529693, 39.336142 ], [ -76.52968, 39.335246 ], [ -76.529685, 39.33115 ], [ -76.532977, 39.330558 ], [ -76.534112, 39.328893 ] ] ] } },
{ "type": "Feature", "properties": { "csa_name": "Cherry Hill" }, "geometry": { "type": "Polygon", "coordinates": [ [ [ -76.610488, 39.254706 ], [ -76.608288, 39.254706 ], [ -76.609089, 39.249906 ], [ -76.612489, 39.246606 ], [ -76.614642, 39.241092 ], [ -76.621721, 39.241702 ], [ -76.625756, 39.242103 ], [ -76.627985, 39.242996 ], [ -76.62867, 39.243473 ], [ -76.634109, 39.249845 ], [ -76.635045, 39.251641 ], [ -76.634553, 39.255971 ], [ -76.633708, 39.258598 ], [ -76.632768, 39.257731 ], [ -76.624689, 39.260606 ], [ -76.623289, 39.260106 ], [ -76.616437, 39.257216 ], [ -76.610488, 39.254706 ] ] ] } },
{ "type": "Feature", "properties": { "csa_name": "Chinquapin Park/Belvedere" }, "geometry": { "type": "Polygon", "coordinates": [ [ [ -76.609985, 39.365126 ], [ -76.609926, 39.36697 ], [ -76.609919, 39.36784 ], [ -76.609805, 39.3722 ], [ -76.605891, 39.372037 ], [ -76.597879, 39.371808 ], [ -76.597045, 39.371868 ], [ -76.599799, 39.369331 ], [ -76.599805, 39.36701 ], [ -76.599283, 39.365912 ], [ -76.597883, 39.36314 ], [ -76.598102, 39.359909 ], [ -76.597752, 39.358535 ], [ -76.595172, 39.355519 ], [ -76.594666, 39.354075 ], [ -76.595733, 39.354022 ], [ -76.596944, 39.354001 ], [ -76.598289, 39.354166 ], [ -76.602334, 39.354711 ], [ -76.609953, 39.355503 ], [ -76.60997, 39.356525 ], [ -76.609977, 39.35682 ], [ -76.610001, 39.358417 ], [ -76.610005, 39.358549 ], [ -76.609985, 39.365126 ] ] ] } },
{ "type": "Feature", "properties": { "csa_name": "Clifton-Berea" }, "geometry": { "type": "Polygon", "coordinates": [ [ [ -76.583901, 39.302313 ], [ -76.585358, 39.302297 ], [ -76.586519, 39.302495 ], [ -76.588135, 39.303218 ], [ -76.58825, 39.305106 ], [ -76.588286, 39.30564 ], [ -76.588507, 39.308679 ], [ -76.588483, 39.308805 ], [ -76.588692, 39.312419 ], [ -76.591098, 39.312313 ], [ -76.593096, 39.312217 ], [ -76.595233, 39.312158 ], [ -76.598477, 39.311992 ], [ -76.59937, 39.311942 ], [ -76.599057, 39.312961 ], [ -76.597941, 39.314262 ], [ -76.596435, 39.315713 ], [ -76.594867, 39.317238 ], [ -76.589881, 39.316123 ], [ -76.585062, 39.314926 ], [ -76.581813, 39.314553 ], [ -76.582164, 39.314243 ], [ -76.573145, 39.314316 ], [ -76.573046, 39.309338 ], [ -76.572793, 39.302721 ], [ -76.578278, 39.302549 ], [ -76.579704, 39.302482 ], [ -76.583901, 39.302313 ] ] ] } },
{ "type": "Feature", "properties": { "csa_name": "Cross-Country/Cheswolde" }, "geometry": { "type": "Polygon", "coordinates": [ [ [ -76.678773, 39.37215 ], [ -76.678191, 39.371994 ], [ -76.677545, 39.369693 ], [ -76.674202, 39.366381 ], [ -76.67336, 39.364547 ], [ -76.673301, 39.364466 ], [ -76.673109, 39.364244 ], [ -76.675658, 39.362375 ], [ -76.679151, 39.360532 ], [ -76.682956, 39.358518 ], [ -76.688144, 39.35576 ], [ -76.68959, 39.356505 ], [ -76.694038, 39.358715 ], [ -76.696712, 39.360122 ], [ -76.697885, 39.360799 ], [ -76.699798, 39.362363 ], [ -76.701481, 39.363732 ], [ -76.702834, 39.364819 ], [ -76.706869, 39.368097 ], [ -76.711313, 39.371933 ], [ -76.705204, 39.372007 ], [ -76.702892, 39.372092 ], [ -76.700106, 39.372005 ], [ -76.692444, 39.372033 ], [ -76.683656, 39.372028 ], [ -76.682343, 39.372201 ], [ -76.678773, 39.37215 ] ] ] } },
{ "type": "Feature", "properties": { "csa_name": "Dickeyville/Franklintown" }, "geometry": { "type": "Polygon", "coordinates": [ [ [ -76.711493, 39.320805 ], [ -76.708393, 39.321805 ], [ -76.704518, 39.322023 ], [ -76.70177, 39.319596 ], [ -76.703947, 39.318582 ], [ -76.702565, 39.315929 ], [ -76.700037, 39.317043 ], [ -76.696924, 39.317274 ], [ -76.696412, 39.314793 ], [ -76.692676, 39.314446 ], [ -76.690004, 39.312386 ], [ -76.69036, 39.309557 ], [ -76.689039, 39.307783 ], [ -76.687203, 39.305491 ], [ -76.686431, 39.305348 ], [ -76.687081, 39.304874 ], [ -76.689582, 39.305099 ], [ -76.694509, 39.304737 ], [ -76.694866, 39.302016 ], [ -76.697455, 39.301456 ], [ -76.700272, 39.301934 ], [ -76.703122, 39.299745 ], [ -76.706178, 39.299673 ], [ -76.705844, 39.302712 ], [ -76.708403, 39.303395 ], [ -76.711191, 39.302955 ], [ -76.711185, 39.303409 ], [ -76.711208, 39.304828 ], [ -76.711228, 39.311709 ], [ -76.711119, 39.312475 ], [ -76.711028, 39.318916 ], [ -76.711493, 39.320805 ] ] ] } },
{ "type": "Feature", "properties": { "csa_name": "Dorchester/Ashburton" }, "geometry": { "type": "Polygon", "coordinates": [ [ [ -76.676243, 39.339098 ], [ -76.673019, 39.336977 ], [ -76.666693, 39.333961 ], [ -76.66589, 39.332968 ], [ -76.664302, 39.327512 ], [ -76.66414, 39.325972 ], [ -76.664776, 39.322194 ], [ -76.669499, 39.323619 ], [ -76.67145, 39.324189 ], [ -76.674659, 39.325134 ], [ -76.681068, 39.326945 ], [ -76.682092, 39.325027 ], [ -76.682564, 39.325842 ], [ -76.690069, 39.323586 ], [ -76.687421, 39.328837 ], [ -76.68858, 39.329184 ], [ -76.688646, 39.330431 ], [ -76.690866, 39.331013 ], [ -76.689675, 39.333394 ], [ -76.689361, 39.333977 ], [ -76.689362, 39.337676 ], [ -76.689373, 39.339732 ], [ -76.689379, 39.340754 ], [ -76.683477, 39.340794 ], [ -76.682916, 39.341435 ], [ -76.677964, 39.339925 ], [ -76.676243, 39.339098 ] ] ] } },
{ "type": "Feature", "properties": { "csa_name": "Downtown/Seton Hill" }, "geometry": { "type": "Polygon", "coordinates": [ [ [ -76.627766, 39.288974 ], [ -76.627503, 39.290128 ], [ -76.627688, 39.29463 ], [ -76.627291, 39.295635 ], [ -76.626159, 39.296653 ], [ -76.624049, 39.298357 ], [ -76.621822, 39.300465 ], [ -76.620269, 39.301757 ], [ -76.620174, 39.301142 ], [ -76.620036, 39.29843 ], [ -76.619983, 39.297359 ], [ -76.61992, 39.296261 ], [ -76.619819, 39.294931 ], [ -76.618322, 39.294978 ], [ -76.616933, 39.295049 ], [ -76.615549, 39.295092 ], [ -76.614342, 39.29512 ], [ -76.613742, 39.294685 ], [ -76.611007, 39.294532 ], [ -76.610541, 39.293472 ], [ -76.606429, 39.290712 ], [ -76.605805, 39.289962 ], [ -76.605139, 39.286851 ], [ -76.612128, 39.286603 ], [ -76.614896, 39.286513 ], [ -76.619332, 39.286316 ], [ -76.620755, 39.286261 ], [ -76.622129, 39.286257 ], [ -76.627539, 39.286057 ], [ -76.628021, 39.287165 ], [ -76.628062, 39.287786 ], [ -76.627766, 39.288974 ] ] ] } },
{ "type": "Feature", "properties": { "csa_name": "Edmondson Village" }, "geometry": { "type": "Polygon", "coordinates": [ [ [ -76.685995, 39.293711 ], [ -76.689425, 39.293581 ], [ -76.689442, 39.294111 ], [ -76.692248, 39.296117 ], [ -76.691572, 39.296734 ], [ -76.693512, 39.297922 ], [ -76.692406, 39.298946 ], [ -76.694866, 39.302016 ], [ -76.694509, 39.304737 ], [ -76.689582, 39.305099 ], [ -76.687081, 39.304874 ], [ -76.686431, 39.305348 ], [ -76.681403, 39.306571 ], [ -76.678912, 39.304989 ], [ -76.675441, 39.303517 ], [ -76.67421, 39.302373 ], [ -76.67275, 39.297609 ], [ -76.670726, 39.296354 ], [ -76.670465, 39.294257 ], [ -76.672383, 39.294201 ], [ -76.67278, 39.294174 ], [ -76.675574, 39.294097 ], [ -76.680657, 39.293903 ], [ -76.681211, 39.293884 ], [ -76.685995, 39.293711 ] ] ] } },
{ "type": "Feature", "properties": { "csa_name": "Fells Point" }, "geometry": { "type": "Polygon", "coordinates": [ [ [ -76.593557, 39.285578 ], [ -76.593803, 39.289257 ], [ -76.593869, 39.290399 ], [ -76.593944, 39.291542 ], [ -76.590468, 39.291679 ], [ -76.587414, 39.291813 ], [ -76.584722, 39.291891 ], [ -76.584572, 39.289599 ], [ -76.584332, 39.285956 ], [ -76.587056, 39.285853 ], [ -76.58693, 39.283806 ], [ -76.586588, 39.277306 ], [ -76.589884, 39.278005 ], [ -76.592991, 39.277527 ], [ -76.595079, 39.277199 ], [ -76.598977, 39.276916 ], [ -76.602588, 39.279506 ], [ -76.599009, 39.282253 ], [ -76.599227, 39.285337 ], [ -76.593557, 39.285578 ] ] ] } },
{ "type": "Feature", "properties": { "csa_name": "Forest Park/Walbrook" }, "geometry": { "type": "Polygon", "coordinates": [ [ [ -76.682564, 39.325842 ], [ -76.682092, 39.325027 ], [ -76.681068, 39.326945 ], [ -76.674659, 39.325134 ], [ -76.67145, 39.324189 ], [ -76.672888, 39.321345 ], [ -76.674532, 39.321829 ], [ -76.674862, 39.321181 ], [ -76.674495, 39.315238 ], [ -76.67443, 39.314334 ], [ -76.674418, 39.314163 ], [ -76.674239, 39.311032 ], [ -76.676016, 39.310916 ], [ -76.680565, 39.310762 ], [ -76.679261, 39.306865 ], [ -76.676717, 39.306749 ], [ -76.674123, 39.306268 ], [ -76.674142, 39.305682 ], [ -76.673682, 39.304243 ], [ -76.673563, 39.303264 ], [ -76.67421, 39.302373 ], [ -76.675441, 39.303517 ], [ -76.678912, 39.304989 ], [ -76.681403, 39.306571 ], [ -76.686431, 39.305348 ], [ -76.687203, 39.305491 ], [ -76.689039, 39.307783 ], [ -76.69036, 39.309557 ], [ -76.690004, 39.312386 ], [ -76.692676, 39.314446 ], [ -76.696412, 39.314793 ], [ -76.696924, 39.317274 ], [ -76.700037, 39.317043 ], [ -76.702565, 39.315929 ], [ -76.703947, 39.318582 ], [ -76.70177, 39.319596 ], [ -76.70002, 39.320303 ], [ -76.690198, 39.323552 ], [ -76.690069, 39.323586 ], [ -76.682564, 39.325842 ] ] ] } },
{ "type": "Feature", "properties": { "csa_name": "Glen-Fallstaff" }, "geometry": { "type": "Polygon", "coordinates": [ [ [ -76.71135, 39.356771 ], [ -76.711191, 39.362798 ], [ -76.711403, 39.364615 ], [ -76.711519, 39.365763 ], [ -76.711313, 39.371933 ], [ -76.706869, 39.368097 ], [ -76.702834, 39.364819 ], [ -76.701481, 39.363732 ], [ -76.699798, 39.362363 ], [ -76.697885, 39.360799 ], [ -76.696712, 39.360122 ], [ -76.694038, 39.358715 ], [ -76.68959, 39.356505 ], [ -76.688144, 39.35576 ], [ -76.682956, 39.358518 ], [ -76.679151, 39.360532 ], [ -76.675658, 39.362375 ], [ -76.673109, 39.364244 ], [ -76.672967, 39.36408 ], [ -76.671325, 39.362076 ], [ -76.671748, 39.360952 ], [ -76.670848, 39.356788 ], [ -76.670774, 39.356482 ], [ -76.672581, 39.356749 ], [ -76.675185, 39.355677 ], [ -76.678871, 39.354136 ], [ -76.683358, 39.351757 ], [ -76.685732, 39.350438 ], [ -76.687608, 39.349407 ], [ -76.690059, 39.347585 ], [ -76.686399, 39.344979 ], [ -76.683519, 39.34294 ], [ -76.680993, 39.341688 ], [ -76.677745, 39.342136 ], [ -76.67671, 39.341841 ], [ -76.677067, 39.341134 ], [ -76.677964, 39.339925 ], [ -76.682916, 39.341435 ], [ -76.687477, 39.342854 ], [ -76.692518, 39.345564 ], [ -76.694494, 39.34667 ], [ -76.702294, 39.351114 ], [ -76.706441, 39.353027 ], [ -76.711388, 39.349496 ], [ -76.711186, 39.354383 ], [ -76.711228, 39.356161 ], [ -76.71135, 39.356771 ] ] ] } },
{ "type": "Feature", "properties": { "csa_name": "Greater Charles Village/Barclay" }, "geometry": { "type": "Polygon", "coordinates": [ [ [ -76.609528, 39.315066 ], [ -76.609497, 39.311405 ], [ -76.610971, 39.311259 ], [ -76.612464, 39.311194 ], [ -76.61381, 39.311136 ], [ -76.614955, 39.311065 ], [ -76.61583, 39.311041 ], [ -76.617915, 39.31099 ], [ -76.619354, 39.310956 ], [ -76.61932, 39.311435 ], [ -76.619559, 39.315159 ], [ -76.619908, 39.320531 ], [ -76.620114, 39.323152 ], [ -76.620553, 39.324687 ], [ -76.62291, 39.326262 ], [ -76.625348, 39.326224 ], [ -76.624973, 39.327824 ], [ -76.625917, 39.331158 ], [ -76.624428, 39.33188 ], [ -76.62376, 39.333934 ], [ -76.624024, 39.336479 ], [ -76.62317, 39.335925 ], [ -76.617978, 39.33248 ], [ -76.616273, 39.331473 ], [ -76.616221, 39.331527 ], [ -76.614979, 39.332664 ], [ -76.609476, 39.330965 ], [ -76.60943, 39.328495 ], [ -76.609428, 39.328314 ], [ -76.609426, 39.3254 ], [ -76.609456, 39.323443 ], [ -76.609484, 39.322149 ], [ -76.609532, 39.320922 ], [ -76.609509, 39.319519 ], [ -76.609464, 39.318111 ], [ -76.60949, 39.316234 ], [ -76.609528, 39.315066 ] ] ] } },
{ "type": "Feature", "properties": { "csa_name": "Greater Govans" }, "geometry": { "type": "Polygon", "coordinates": [ [ [ -76.600132, 39.33924 ], [ -76.599439, 39.337964 ], [ -76.595443, 39.33403 ], [ -76.600197, 39.334038 ], [ -76.604485, 39.33404 ], [ -76.607147, 39.334061 ], [ -76.607537, 39.334483 ], [ -76.609508, 39.334456 ], [ -76.609533, 39.338665 ], [ -76.60958, 39.339798 ], [ -76.6096, 39.340181 ], [ -76.609682, 39.34104 ], [ -76.609682, 39.346177 ], [ -76.609788, 39.350145 ], [ -76.60984, 39.351952 ], [ -76.609881, 39.352801 ], [ -76.609928, 39.354331 ], [ -76.609953, 39.355503 ], [ -76.602334, 39.354711 ], [ -76.598289, 39.354166 ], [ -76.599729, 39.345149 ], [ -76.600211, 39.340064 ], [ -76.600132, 39.33924 ] ] ] } },
{ "type": "Feature", "properties": { "csa_name": "Greater Lauraville" }, "geometry": { "type": "Polygon", "coordinates": [ [ [ -76.555376, 39.34192 ], [ -76.554799, 39.341218 ], [ -76.553285, 39.339229 ], [ -76.552441, 39.337614 ], [ -76.554456, 39.336185 ], [ -76.558902, 39.333078 ], [ -76.561612, 39.331095 ], [ -76.56412, 39.329249 ], [ -76.567543, 39.326406 ], [ -76.568236, 39.327416 ], [ -76.570771, 39.32721 ], [ -76.569928, 39.32954 ], [ -76.575302, 39.33222 ], [ -76.576547, 39.333861 ], [ -76.578427, 39.335492 ], [ -76.576952, 39.338625 ], [ -76.579257, 39.341568 ], [ -76.581539, 39.341919 ], [ -76.580805, 39.345277 ], [ -76.581827, 39.349018 ], [ -76.579488, 39.350405 ], [ -76.577609, 39.349775 ], [ -76.577649, 39.352457 ], [ -76.57418, 39.352651 ], [ -76.573015, 39.353903 ], [ -76.572549, 39.353808 ], [ -76.570315, 39.353439 ], [ -76.568117, 39.353064 ], [ -76.566612, 39.352787 ], [ -76.565726, 39.352393 ], [ -76.563355, 39.350138 ], [ -76.560885, 39.348354 ], [ -76.560257, 39.347685 ], [ -76.558147, 39.345185 ], [ -76.555376, 39.34192 ] ] ] } },
{ "type": "Feature", "properties": { "csa_name": "Greater Mondawmin" }, "geometry": { "type": "Polygon", "coordinates": [ [ [ -76.661319, 39.311446 ], [ -76.664137, 39.311374 ], [ -76.66591, 39.31132 ], [ -76.672505, 39.311077 ], [ -76.674239, 39.311032 ], [ -76.674418, 39.314163 ], [ -76.67443, 39.314334 ], [ -76.674495, 39.315238 ], [ -76.674862, 39.321181 ], [ -76.674532, 39.321829 ], [ -76.672888, 39.321345 ], [ -76.67145, 39.324189 ], [ -76.669499, 39.323619 ], [ -76.664776, 39.322194 ], [ -76.66414, 39.325972 ], [ -76.664302, 39.327512 ], [ -76.661594, 39.326914 ], [ -76.658867, 39.327068 ], [ -76.657842, 39.325713 ], [ -76.657528, 39.325453 ], [ -76.657105, 39.324785 ], [ -76.652477, 39.318549 ], [ -76.652014, 39.31805 ], [ -76.650494, 39.316704 ], [ -76.648725, 39.315225 ], [ -76.646316, 39.313248 ], [ -76.645408, 39.312515 ], [ -76.642514, 39.310089 ], [ -76.645006, 39.309944 ], [ -76.651339, 39.30968 ], [ -76.655994, 39.309508 ], [ -76.659985, 39.309368 ], [ -76.659625, 39.314451 ], [ -76.659779, 39.315224 ], [ -76.661728, 39.314727 ], [ -76.661319, 39.311446 ] ] ] } },
{ "type": "Feature", "properties": { "csa_name": "Greater Roland Park/Poplar Hill" }, "geometry": { "type": "Polygon", "coordinates": [ [ [ -76.628184, 39.348748 ], [ -76.626282, 39.34506 ], [ -76.625629, 39.344001 ], [ -76.625785, 39.341591 ], [ -76.625744, 39.339604 ], [ -76.624024, 39.336479 ], [ -76.624544, 39.336791 ], [ -76.625566, 39.33735 ], [ -76.627683, 39.339122 ], [ -76.62858, 39.339436 ], [ -76.631389, 39.339326 ], [ -76.634624, 39.341765 ], [ -76.635163, 39.342645 ], [ -76.635382, 39.34388 ], [ -76.63917, 39.343066 ], [ -76.640283, 39.343372 ], [ -76.642314, 39.344748 ], [ -76.644364, 39.3454 ], [ -76.647222, 39.345243 ], [ -76.646414, 39.350059 ], [ -76.64812, 39.354213 ], [ -76.649831, 39.356362 ], [ -76.650551, 39.360533 ], [ -76.648588, 39.361042 ], [ -76.646257, 39.361444 ], [ -76.649353, 39.370648 ], [ -76.649041, 39.372181 ], [ -76.646926, 39.372006 ], [ -76.633944, 39.372009 ], [ -76.634218, 39.369374 ], [ -76.63159, 39.368707 ], [ -76.631666, 39.365489 ], [ -76.628037, 39.365859 ], [ -76.629483, 39.361881 ], [ -76.630267, 39.35861 ], [ -76.629227, 39.353429 ], [ -76.628184, 39.348748 ] ] ] } },
{ "type": "Feature", "properties": { "csa_name": "Greater Rosemont" }, "geometry": { "type": "Polygon", "coordinates": [ [ [ -76.64865, 39.302917 ], [ -76.647717, 39.302305 ], [ -76.650177, 39.30107 ], [ -76.651354, 39.298638 ], [ -76.650607, 39.298663 ], [ -76.650477, 39.295072 ], [ -76.650383, 39.293698 ], [ -76.656274, 39.293439 ], [ -76.659353, 39.293352 ], [ -76.663884, 39.293319 ], [ -76.664927, 39.294452 ], [ -76.666711, 39.294412 ], [ -76.669717, 39.294276 ], [ -76.670465, 39.294257 ], [ -76.670726, 39.296354 ], [ -76.67275, 39.297609 ], [ -76.67421, 39.302373 ], [ -76.673563, 39.303264 ], [ -76.673682, 39.304243 ], [ -76.674142, 39.305682 ], [ -76.674123, 39.306268 ], [ -76.676717, 39.306749 ], [ -76.679261, 39.306865 ], [ -76.680565, 39.310762 ], [ -76.676016, 39.310916 ], [ -76.674239, 39.311032 ], [ -76.672505, 39.311077 ], [ -76.66591, 39.31132 ], [ -76.664137, 39.311374 ], [ -76.661319, 39.311446 ], [ -76.661728, 39.314727 ], [ -76.659779, 39.315224 ], [ -76.659625, 39.314451 ], [ -76.659985, 39.309368 ], [ -76.655994, 39.309508 ], [ -76.651339, 39.30968 ], [ -76.651191, 39.307766 ], [ -76.651048, 39.305115 ], [ -76.651607, 39.30335 ], [ -76.64865, 39.302917 ] ] ] } },
{ "type": "Feature", "properties": { "csa_name": "Greektown/Bayview" }, "geometry": { "type": "Polygon", "coordinates": [ [ [ -76.562057, 39.280707 ], [ -76.562123, 39.281749 ], [ -76.562312, 39.284791 ], [ -76.562513, 39.287825 ], [ -76.562578, 39.288816 ], [ -76.562744, 39.291595 ], [ -76.562827, 39.292754 ], [ -76.569413, 39.292487 ], [ -76.569462, 39.293066 ], [ -76.56974, 39.297225 ], [ -76.569869, 39.299202 ], [ -76.569911, 39.29935 ], [ -76.572661, 39.299237 ], [ -76.572789, 39.299234 ], [ -76.572793, 39.302721 ], [ -76.573046, 39.309338 ], [ -76.568615, 39.309379 ], [ -76.565478, 39.30897 ], [ -76.554885, 39.301018 ], [ -76.553479, 39.300151 ], [ -76.550674, 39.301077 ], [ -76.546089, 39.302548 ], [ -76.539257, 39.304629 ], [ -76.536411, 39.305962 ], [ -76.529786, 39.310391 ], [ -76.529786, 39.29911 ], [ -76.529517, 39.297056 ], [ -76.529681, 39.288152 ], [ -76.529592, 39.284852 ], [ -76.530393, 39.284818 ], [ -76.535704, 39.281793 ], [ -76.540512, 39.281573 ], [ -76.543805, 39.281443 ], [ -76.547586, 39.281286 ], [ -76.554581, 39.280977 ], [ -76.562057, 39.280707 ] ] ] } },
{ "type": "Feature", "properties": { "csa_name": "Hamilton" }, "geometry": { "type": "Polygon", "coordinates": [ [ [ -76.538996, 39.34741 ], [ -76.541004, 39.345612 ], [ -76.543673, 39.343707 ], [ -76.544753, 39.342946 ], [ -76.545574, 39.342364 ], [ -76.547409, 39.341103 ], [ -76.55166, 39.338122 ], [ -76.552441, 39.337614 ], [ -76.553285, 39.339229 ], [ -76.554799, 39.341218 ], [ -76.555376, 39.34192 ], [ -76.558147, 39.345185 ], [ -76.560257, 39.347685 ], [ -76.560885, 39.348354 ], [ -76.563355, 39.350138 ], [ -76.55986, 39.354183 ], [ -76.55917, 39.354999 ], [ -76.557859, 39.356511 ], [ -76.557731, 39.356658 ], [ -76.551894, 39.363406 ], [ -76.54775, 39.361901 ], [ -76.544112, 39.360572 ], [ -76.539224, 39.358825 ], [ -76.538123, 39.358398 ], [ -76.535294, 39.358001 ], [ -76.529785, 39.356552 ], [ -76.529773, 39.355575 ], [ -76.534763, 39.351196 ], [ -76.538996, 39.34741 ] ] ] } },
{ "type": "Feature", "properties": { "csa_name": "Hamilton Hills" }, "geometry": { "type": "Polygon", "coordinates": [ [ [ -76.55986, 39.354183 ], [ -76.563355, 39.350138 ], [ -76.565726, 39.352393 ], [ -76.566612, 39.352787 ], [ -76.568117, 39.353064 ], [ -76.570315, 39.353439 ], [ -76.572549, 39.353808 ], [ -76.573015, 39.353903 ], [ -76.573117, 39.355529 ], [ -76.573541, 39.365126 ], [ -76.574048, 39.36754 ], [ -76.573563, 39.368539 ], [ -76.5701, 39.372039 ], [ -76.569997, 39.372121 ], [ -76.567243, 39.372104 ], [ -76.561788, 39.372205 ], [ -76.553749, 39.37207 ], [ -76.549357, 39.372067 ], [ -76.545145, 39.372104 ], [ -76.544243, 39.372181 ], [ -76.5405, 39.37211 ], [ -76.529793, 39.372058 ], [ -76.529787, 39.371606 ], [ -76.52979, 39.363815 ], [ -76.529785, 39.356552 ], [ -76.535294, 39.358001 ], [ -76.538123, 39.358398 ], [ -76.539224, 39.358825 ], [ -76.544112, 39.360572 ], [ -76.54775, 39.361901 ], [ -76.551894, 39.363406 ], [ -76.557731, 39.356658 ], [ -76.557859, 39.356511 ], [ -76.55917, 39.354999 ], [ -76.55986, 39.354183 ] ] ] } },
{ "type": "Feature", "properties": { "csa_name": "Hampden/Remington" }, "geometry": { "type": "Polygon", "coordinates": [ [ [ -76.620553, 39.324687 ], [ -76.620114, 39.323152 ], [ -76.619908, 39.320531 ], [ -76.619559, 39.315159 ], [ -76.61932, 39.311435 ], [ -76.619354, 39.310956 ], [ -76.620221, 39.310945 ], [ -76.623277, 39.310848 ], [ -76.625574, 39.312345 ], [ -76.627862, 39.314749 ], [ -76.628466, 39.3154 ], [ -76.62943, 39.317081 ], [ -76.629888, 39.318154 ], [ -76.632701, 39.323496 ], [ -76.6343, 39.324737 ], [ -76.640014, 39.326736 ], [ -76.640528, 39.327216 ], [ -76.642788, 39.329658 ], [ -76.644591, 39.329705 ], [ -76.646191, 39.329905 ], [ -76.651891, 39.331051 ], [ -76.654032, 39.330291 ], [ -76.655735, 39.333053 ], [ -76.655964, 39.333549 ], [ -76.655937, 39.334611 ], [ -76.656359, 39.336504 ], [ -76.656604, 39.337847 ], [ -76.657829, 39.339069 ], [ -76.65841, 39.340832 ], [ -76.658181, 39.340866 ], [ -76.654209, 39.342221 ], [ -76.650191, 39.344944 ], [ -76.64814, 39.345128 ], [ -76.647222, 39.345243 ], [ -76.644364, 39.3454 ], [ -76.642314, 39.344748 ], [ -76.640283, 39.343372 ], [ -76.63917, 39.343066 ], [ -76.635382, 39.34388 ], [ -76.635163, 39.342645 ], [ -76.634624, 39.341765 ], [ -76.631389, 39.339326 ], [ -76.62858, 39.339436 ], [ -76.627683, 39.339122 ], [ -76.625566, 39.33735 ], [ -76.624544, 39.336791 ], [ -76.624024, 39.336479 ], [ -76.62376, 39.333934 ], [ -76.624428, 39.33188 ], [ -76.625917, 39.331158 ], [ -76.624973, 39.327824 ], [ -76.625348, 39.326224 ], [ -76.62291, 39.326262 ], [ -76.620553, 39.324687 ] ] ] } },
{ "type": "Feature", "properties": { "csa_name": "Harbor East/Little Italy" }, "geometry": { "type": "Polygon", "coordinates": [ [ [ -76.603006, 39.291641 ], [ -76.599687, 39.292536 ], [ -76.594816, 39.293949 ], [ -76.594117, 39.293968 ], [ -76.593944, 39.291542 ], [ -76.593869, 39.290399 ], [ -76.593803, 39.289257 ], [ -76.593557, 39.285578 ], [ -76.599227, 39.285337 ], [ -76.599009, 39.282253 ], [ -76.602588, 39.279506 ], [ -76.602788, 39.279806 ], [ -76.603688, 39.280906 ], [ -76.605001, 39.286855 ], [ -76.605139, 39.286851 ], [ -76.605805, 39.289962 ], [ -76.606429, 39.290712 ], [ -76.603006, 39.291641 ] ] ] } },
{ "type": "Feature", "properties": { "csa_name": "Highlandtown" }, "geometry": { "type": "Polygon", "coordinates": [ [ [ -76.569091, 39.287565 ], [ -76.569306, 39.290867 ], [ -76.569334, 39.291336 ], [ -76.569413, 39.292487 ], [ -76.562827, 39.292754 ], [ -76.562744, 39.291595 ], [ -76.562578, 39.288816 ], [ -76.562513, 39.287825 ], [ -76.562312, 39.284791 ], [ -76.562123, 39.281749 ], [ -76.562057, 39.280707 ], [ -76.5645, 39.278595 ], [ -76.568512, 39.278417 ], [ -76.571008, 39.278337 ], [ -76.571151, 39.280366 ], [ -76.571261, 39.282382 ], [ -76.571339, 39.283407 ], [ -76.571396, 39.284423 ], [ -76.571607, 39.287477 ], [ -76.569091, 39.287565 ] ] ] } },
{ "type": "Feature", "properties": { "csa_name": "Howard Park/West Arlington" }, "geometry": { "type": "Polygon", "coordinates": [ [ [ -76.711393, 39.326955 ], [ -76.711391, 39.327216 ], [ -76.711462, 39.334573 ], [ -76.711025, 39.336333 ], [ -76.711011, 39.336391 ], [ -76.711388, 39.349496 ], [ -76.706441, 39.353027 ], [ -76.702294, 39.351114 ], [ -76.694494, 39.34667 ], [ -76.692518, 39.345564 ], [ -76.687477, 39.342854 ], [ -76.682916, 39.341435 ], [ -76.683477, 39.340794 ], [ -76.689379, 39.340754 ], [ -76.689373, 39.339732 ], [ -76.689362, 39.337676 ], [ -76.689361, 39.333977 ], [ -76.689675, 39.333394 ], [ -76.690866, 39.331013 ], [ -76.688646, 39.330431 ], [ -76.68858, 39.329184 ], [ -76.687421, 39.328837 ], [ -76.690069, 39.323586 ], [ -76.690198, 39.323552 ], [ -76.70002, 39.320303 ], [ -76.70177, 39.319596 ], [ -76.704518, 39.322023 ], [ -76.708393, 39.321805 ], [ -76.711493, 39.320805 ], [ -76.711393, 39.322005 ], [ -76.711393, 39.326955 ] ] ] } },
{ "type": "Feature", "properties": { "csa_name": "Inner Harbor/Federal Hill" }, "geometry": { "type": "Polygon", "coordinates": [ [ [ -76.611504, 39.271142 ], [ -76.611579, 39.270613 ], [ -76.615953, 39.270453 ], [ -76.616111, 39.272553 ], [ -76.616773, 39.272538 ], [ -76.618636, 39.272459 ], [ -76.618719, 39.27391 ], [ -76.620945, 39.274549 ], [ -76.62013, 39.276446 ], [ -76.619237, 39.278248 ], [ -76.618999, 39.279052 ], [ -76.61979, 39.280205 ], [ -76.620207, 39.28027 ], [ -76.623186, 39.281238 ], [ -76.625384, 39.282235 ], [ -76.627539, 39.286057 ], [ -76.622129, 39.286257 ], [ -76.620755, 39.286261 ], [ -76.619332, 39.286316 ], [ -76.614896, 39.286513 ], [ -76.612128, 39.286603 ], [ -76.605139, 39.286851 ], [ -76.605001, 39.286855 ], [ -76.603688, 39.280906 ], [ -76.602788, 39.279806 ], [ -76.602588, 39.279506 ], [ -76.598977, 39.276916 ], [ -76.595079, 39.277199 ], [ -76.598908, 39.2708 ], [ -76.599699, 39.271093 ], [ -76.605158, 39.272981 ], [ -76.606712, 39.272908 ], [ -76.608388, 39.272851 ], [ -76.611754, 39.2727 ], [ -76.611504, 39.271142 ] ] ] } },
{ "type": "Feature", "properties": { "csa_name": "Loch Raven" }, "geometry": { "type": "Polygon", "coordinates": [ [ [ -76.592136, 39.354367 ], [ -76.593326, 39.354131 ], [ -76.594666, 39.354075 ], [ -76.595172, 39.355519 ], [ -76.597752, 39.358535 ], [ -76.598102, 39.359909 ], [ -76.597883, 39.36314 ], [ -76.599283, 39.365912 ], [ -76.599805, 39.36701 ], [ -76.599799, 39.369331 ], [ -76.597045, 39.371868 ], [ -76.594904, 39.371931 ], [ -76.588305, 39.371941 ], [ -76.587701, 39.371782 ], [ -76.585599, 39.372024 ], [ -76.583457, 39.37211 ], [ -76.582208, 39.372106 ], [ -76.581956, 39.372105 ], [ -76.579029, 39.372091 ], [ -76.569997, 39.372121 ], [ -76.5701, 39.372039 ], [ -76.573563, 39.368539 ], [ -76.574048, 39.36754 ], [ -76.573541, 39.365126 ], [ -76.573117, 39.355529 ], [ -76.573015, 39.353903 ], [ -76.574056, 39.354117 ], [ -76.575788, 39.354923 ], [ -76.578658, 39.354486 ], [ -76.582683, 39.355597 ], [ -76.589561, 39.355418 ], [ -76.592136, 39.354367 ] ] ] } },
{ "type": "Feature", "properties": { "csa_name": "Madison/East End" }, "geometry": { "type": "Polygon", "coordinates": [ [ [ -76.583901, 39.302313 ], [ -76.579704, 39.302482 ], [ -76.578278, 39.302549 ], [ -76.572793, 39.302721 ], [ -76.572789, 39.299234 ], [ -76.572661, 39.299237 ], [ -76.572597, 39.297115 ], [ -76.575804, 39.296994 ], [ -76.577955, 39.296911 ], [ -76.580041, 39.296817 ], [ -76.580754, 39.29679 ], [ -76.582169, 39.296752 ], [ -76.583585, 39.296687 ], [ -76.58773, 39.296519 ], [ -76.587869, 39.298647 ], [ -76.588079, 39.302138 ], [ -76.588135, 39.303218 ], [ -76.586519, 39.302495 ], [ -76.585358, 39.302297 ], [ -76.583901, 39.302313 ] ] ] } },
{ "type": "Feature", "properties": { "csa_name": "Midtown" }, "geometry": { "type": "Polygon", "coordinates": [ [ [ -76.611516, 39.303603 ], [ -76.611594, 39.302534 ], [ -76.611551, 39.301224 ], [ -76.611313, 39.297707 ], [ -76.611007, 39.294532 ], [ -76.613742, 39.294685 ], [ -76.614342, 39.29512 ], [ -76.615549, 39.295092 ], [ -76.616933, 39.295049 ], [ -76.618322, 39.294978 ], [ -76.619819, 39.294931 ], [ -76.61992, 39.296261 ], [ -76.619983, 39.297359 ], [ -76.620036, 39.29843 ], [ -76.620174, 39.301142 ], [ -76.620269, 39.301757 ], [ -76.620723, 39.304351 ], [ -76.624132, 39.303841 ], [ -76.625118, 39.303182 ], [ -76.626905, 39.304784 ], [ -76.628783, 39.306355 ], [ -76.630761, 39.307947 ], [ -76.632658, 39.309499 ], [ -76.633658, 39.310341 ], [ -76.632189, 39.310386 ], [ -76.629938, 39.310496 ], [ -76.628003, 39.310574 ], [ -76.623277, 39.310848 ], [ -76.620221, 39.310945 ], [ -76.619354, 39.310956 ], [ -76.617915, 39.31099 ], [ -76.61583, 39.311041 ], [ -76.614955, 39.311065 ], [ -76.61381, 39.311136 ], [ -76.612464, 39.311194 ], [ -76.610971, 39.311259 ], [ -76.609497, 39.311405 ], [ -76.609391, 39.310071 ], [ -76.608199, 39.304839 ], [ -76.611208, 39.304718 ], [ -76.61135, 39.304715 ], [ -76.611516, 39.303603 ] ] ] } },
{ "type": "Feature", "properties": { "csa_name": "Midway/Coldstream" }, "geometry": { "type": "Polygon", "coordinates": [ [ [ -76.60949, 39.316234 ], [ -76.609464, 39.318111 ], [ -76.609509, 39.319519 ], [ -76.607873, 39.319552 ], [ -76.605812, 39.319457 ], [ -76.603351, 39.319181 ], [ -76.601489, 39.31879 ], [ -76.597881, 39.32236 ], [ -76.596764, 39.323456 ], [ -76.593929, 39.326225 ], [ -76.595145, 39.328347 ], [ -76.590704, 39.328359 ], [ -76.589311, 39.328364 ], [ -76.589315, 39.327539 ], [ -76.589334, 39.327297 ], [ -76.585153, 39.327308 ], [ -76.584576, 39.327047 ], [ -76.58747, 39.323564 ], [ -76.588534, 39.32283 ], [ -76.589978, 39.321861 ], [ -76.590658, 39.321239 ], [ -76.591683, 39.32026 ], [ -76.592821, 39.319178 ], [ -76.594867, 39.317238 ], [ -76.596435, 39.315713 ], [ -76.597941, 39.314262 ], [ -76.599057, 39.312961 ], [ -76.59937, 39.311942 ], [ -76.606158, 39.311605 ], [ -76.607133, 39.311536 ], [ -76.609497, 39.311405 ], [ -76.609528, 39.315066 ], [ -76.60949, 39.316234 ] ] ] } },
{ "type": "Feature", "properties": { "csa_name": "Morrell Park/Violetville" }, "geometry": { "type": "Polygon", "coordinates": [ [ [ -76.669418, 39.275522 ], [ -76.667082, 39.276147 ], [ -76.665061, 39.275043 ], [ -76.662291, 39.27624 ], [ -76.659408, 39.274653 ], [ -76.657608, 39.276041 ], [ -76.65664, 39.276256 ], [ -76.654919, 39.275524 ], [ -76.655243, 39.274924 ], [ -76.654996, 39.271192 ], [ -76.653264, 39.271539 ], [ -76.64737, 39.271164 ], [ -76.639054, 39.270421 ], [ -76.63733, 39.27014 ], [ -76.649834, 39.260314 ], [ -76.65251, 39.258401 ], [ -76.657559, 39.256784 ], [ -76.65986, 39.255509 ], [ -76.66261, 39.256796 ], [ -76.664322, 39.257442 ], [ -76.673432, 39.261281 ], [ -76.680025, 39.264413 ], [ -76.683541, 39.265862 ], [ -76.684649, 39.266458 ], [ -76.686048, 39.266885 ], [ -76.688634, 39.268178 ], [ -76.697379, 39.272196 ], [ -76.698892, 39.272705 ], [ -76.695371, 39.27191 ], [ -76.69268, 39.271824 ], [ -76.689454, 39.272116 ], [ -76.688192, 39.274505 ], [ -76.683581, 39.276569 ], [ -76.681673, 39.276998 ], [ -76.679977, 39.27716 ], [ -76.676677, 39.274385 ], [ -76.675482, 39.274183 ], [ -76.671563, 39.275933 ], [ -76.669418, 39.275522 ] ] ] } },
{ "type": "Feature", "properties": { "csa_name": "Mount Washington/Coldspring" }, "geometry": { "type": "Polygon", "coordinates": [ [ [ -76.649831, 39.356362 ], [ -76.64812, 39.354213 ], [ -76.646414, 39.350059 ], [ -76.647222, 39.345243 ], [ -76.64814, 39.345128 ], [ -76.650191, 39.344944 ], [ -76.654209, 39.342221 ], [ -76.658181, 39.340866 ], [ -76.657193, 39.342303 ], [ -76.658853, 39.344383 ], [ -76.659582, 39.345717 ], [ -76.659447, 39.346506 ], [ -76.659133, 39.347887 ], [ -76.659604, 39.350934 ], [ -76.660408, 39.355193 ], [ -76.663489, 39.355404 ], [ -76.665964, 39.357613 ], [ -76.670848, 39.356788 ], [ -76.671748, 39.360952 ], [ -76.671325, 39.362076 ], [ -76.672967, 39.36408 ], [ -76.673109, 39.364244 ], [ -76.673301, 39.364466 ], [ -76.67336, 39.364547 ], [ -76.674202, 39.366381 ], [ -76.677545, 39.369693 ], [ -76.678191, 39.371994 ], [ -76.666192, 39.372005 ], [ -76.659997, 39.372096 ], [ -76.657792, 39.371993 ], [ -76.652738, 39.372105 ], [ -76.649803, 39.372104 ], [ -76.649041, 39.372181 ], [ -76.649353, 39.370648 ], [ -76.646257, 39.361444 ], [ -76.648588, 39.361042 ], [ -76.650551, 39.360533 ], [ -76.649831, 39.356362 ] ] ] } },
{ "type": "Feature", "properties": { "csa_name": "North Baltimore/Guilford/Homeland" }, "geometry": { "type": "Polygon", "coordinates": [ [ [ -76.609508, 39.334456 ], [ -76.609476, 39.330965 ], [ -76.614979, 39.332664 ], [ -76.616221, 39.331527 ], [ -76.616273, 39.331473 ], [ -76.617978, 39.33248 ], [ -76.62317, 39.335925 ], [ -76.624024, 39.336479 ], [ -76.625744, 39.339604 ], [ -76.625785, 39.341591 ], [ -76.625629, 39.344001 ], [ -76.626282, 39.34506 ], [ -76.628184, 39.348748 ], [ -76.629227, 39.353429 ], [ -76.630267, 39.35861 ], [ -76.629483, 39.361881 ], [ -76.628037, 39.365859 ], [ -76.631666, 39.365489 ], [ -76.63159, 39.368707 ], [ -76.634218, 39.369374 ], [ -76.633944, 39.372009 ], [ -76.631691, 39.371705 ], [ -76.626193, 39.372017 ], [ -76.619643, 39.371951 ], [ -76.618344, 39.372034 ], [ -76.613875, 39.371762 ], [ -76.609805, 39.3722 ], [ -76.609919, 39.36784 ], [ -76.609926, 39.36697 ], [ -76.609985, 39.365126 ], [ -76.610005, 39.358549 ], [ -76.610001, 39.358417 ], [ -76.609977, 39.35682 ], [ -76.60997, 39.356525 ], [ -76.609953, 39.355503 ], [ -76.609928, 39.354331 ], [ -76.609881, 39.352801 ], [ -76.60984, 39.351952 ], [ -76.609788, 39.350145 ], [ -76.609682, 39.346177 ], [ -76.609682, 39.34104 ], [ -76.6096, 39.340181 ], [ -76.60958, 39.339798 ], [ -76.609533, 39.338665 ], [ -76.609508, 39.334456 ] ] ] } },
{ "type": "Feature", "properties": { "csa_name": "Northwood" }, "geometry": { "type": "Polygon", "coordinates": [ [ [ -76.576547, 39.333861 ], [ -76.578992, 39.331762 ], [ -76.583874, 39.327913 ], [ -76.584576, 39.327047 ], [ -76.585153, 39.327308 ], [ -76.589334, 39.327297 ], [ -76.589315, 39.327539 ], [ -76.589311, 39.328364 ], [ -76.590704, 39.328359 ], [ -76.595145, 39.328347 ], [ -76.595115, 39.330136 ], [ -76.595159, 39.333147 ], [ -76.595443, 39.33403 ], [ -76.599439, 39.337964 ], [ -76.600132, 39.33924 ], [ -76.600211, 39.340064 ], [ -76.599729, 39.345149 ], [ -76.598289, 39.354166 ], [ -76.596944, 39.354001 ], [ -76.595733, 39.354022 ], [ -76.594666, 39.354075 ], [ -76.593326, 39.354131 ], [ -76.592136, 39.354367 ], [ -76.589561, 39.355418 ], [ -76.582683, 39.355597 ], [ -76.578658, 39.354486 ], [ -76.575788, 39.354923 ], [ -76.574056, 39.354117 ], [ -76.573015, 39.353903 ], [ -76.57418, 39.352651 ], [ -76.577649, 39.352457 ], [ -76.577609, 39.349775 ], [ -76.579488, 39.350405 ], [ -76.581827, 39.349018 ], [ -76.580805, 39.345277 ], [ -76.581539, 39.341919 ], [ -76.579257, 39.341568 ], [ -76.576952, 39.338625 ], [ -76.578427, 39.335492 ], [ -76.576547, 39.333861 ] ] ] } },
{ "type": "Feature", "properties": { "csa_name": "Oldtown/Middle East" }, "geometry": { "type": "Polygon", "coordinates": [ [ [ -76.58773, 39.296519 ], [ -76.587584, 39.294208 ], [ -76.587414, 39.291813 ], [ -76.590468, 39.291679 ], [ -76.593944, 39.291542 ], [ -76.594117, 39.293968 ], [ -76.594816, 39.293949 ], [ -76.599687, 39.292536 ], [ -76.603006, 39.291641 ], [ -76.606429, 39.290712 ], [ -76.610541, 39.293472 ], [ -76.611007, 39.294532 ], [ -76.611313, 39.297707 ], [ -76.606332, 39.297912 ], [ -76.607269, 39.301361 ], [ -76.604906, 39.301491 ], [ -76.59937, 39.301682 ], [ -76.597829, 39.301744 ], [ -76.598069, 39.305222 ], [ -76.592521, 39.305452 ], [ -76.588286, 39.30564 ], [ -76.58825, 39.305106 ], [ -76.588135, 39.303218 ], [ -76.588079, 39.302138 ], [ -76.587869, 39.298647 ], [ -76.58773, 39.296519 ] ] ] } },
{ "type": "Feature", "properties": { "csa_name": "Oliver/Johnston Square" }, "geometry": { "type": "Polygon", "coordinates": [ [ [ -76.61135, 39.304715 ], [ -76.611208, 39.304718 ], [ -76.608199, 39.304839 ], [ -76.609391, 39.310071 ], [ -76.609497, 39.311405 ], [ -76.607133, 39.311536 ], [ -76.606158, 39.311605 ], [ -76.59937, 39.311942 ], [ -76.598477, 39.311992 ], [ -76.595233, 39.312158 ], [ -76.593096, 39.312217 ], [ -76.591098, 39.312313 ], [ -76.588692, 39.312419 ], [ -76.588483, 39.308805 ], [ -76.588507, 39.308679 ], [ -76.588286, 39.30564 ], [ -76.592521, 39.305452 ], [ -76.598069, 39.305222 ], [ -76.597829, 39.301744 ], [ -76.59937, 39.301682 ], [ -76.604906, 39.301491 ], [ -76.607269, 39.301361 ], [ -76.61096, 39.301248 ], [ -76.611551, 39.301224 ], [ -76.611594, 39.302534 ], [ -76.611516, 39.303603 ], [ -76.61135, 39.304715 ] ] ] } },
{ "type": "Feature", "properties": { "csa_name": "Orchard Ridge/Armistead" }, "geometry": { "type": "Polygon", "coordinates": [ [ [ -76.550674, 39.301077 ], [ -76.553479, 39.300151 ], [ -76.554885, 39.301018 ], [ -76.565478, 39.30897 ], [ -76.568615, 39.309379 ], [ -76.573046, 39.309338 ], [ -76.573145, 39.314316 ], [ -76.573137, 39.314474 ], [ -76.570447, 39.313451 ], [ -76.567713, 39.313531 ], [ -76.566407, 39.313561 ], [ -76.563668, 39.313642 ], [ -76.559314, 39.315315 ], [ -76.557123, 39.316561 ], [ -76.555024, 39.317956 ], [ -76.552311, 39.316808 ], [ -76.549152, 39.316351 ], [ -76.548938, 39.315888 ], [ -76.548136, 39.316256 ], [ -76.540459, 39.321218 ], [ -76.536023, 39.326705 ], [ -76.534104, 39.328295 ], [ -76.534112, 39.328893 ], [ -76.532977, 39.330558 ], [ -76.529685, 39.33115 ], [ -76.529685, 39.33028 ], [ -76.529686, 39.323264 ], [ -76.529971, 39.319565 ], [ -76.529786, 39.310391 ], [ -76.536411, 39.305962 ], [ -76.539257, 39.304629 ], [ -76.546089, 39.302548 ], [ -76.550674, 39.301077 ] ] ] } },
{ "type": "Feature", "properties": { "csa_name": "Patterson Park North & East" }, "geometry": { "type": "Polygon", "coordinates": [ [ [ -76.576174, 39.292232 ], [ -76.577623, 39.292178 ], [ -76.579727, 39.292099 ], [ -76.581886, 39.292012 ], [ -76.583325, 39.291956 ], [ -76.584722, 39.291891 ], [ -76.587414, 39.291813 ], [ -76.587584, 39.294208 ], [ -76.58773, 39.296519 ], [ -76.583585, 39.296687 ], [ -76.582169, 39.296752 ], [ -76.580754, 39.29679 ], [ -76.580041, 39.296817 ], [ -76.577955, 39.296911 ], [ -76.575804, 39.296994 ], [ -76.572597, 39.297115 ], [ -76.572661, 39.299237 ], [ -76.569911, 39.29935 ], [ -76.569869, 39.299202 ], [ -76.56974, 39.297225 ], [ -76.569462, 39.293066 ], [ -76.569413, 39.292487 ], [ -76.569334, 39.291336 ], [ -76.569306, 39.290867 ], [ -76.569091, 39.287565 ], [ -76.571607, 39.287477 ], [ -76.571396, 39.284423 ], [ -76.572821, 39.284364 ], [ -76.57709, 39.284207 ], [ -76.577242, 39.286242 ], [ -76.575814, 39.2863 ], [ -76.576174, 39.292232 ] ] ] } },
{ "type": "Feature", "properties": { "csa_name": "Penn North/Reservoir Hill" }, "geometry": { "type": "Polygon", "coordinates": [ [ [ -76.625574, 39.312345 ], [ -76.623277, 39.310848 ], [ -76.628003, 39.310574 ], [ -76.629938, 39.310496 ], [ -76.632189, 39.310386 ], [ -76.633658, 39.310341 ], [ -76.633896, 39.310335 ], [ -76.636986, 39.310319 ], [ -76.638331, 39.310237 ], [ -76.638372, 39.310237 ], [ -76.642514, 39.310089 ], [ -76.645408, 39.312515 ], [ -76.646316, 39.313248 ], [ -76.648725, 39.315225 ], [ -76.650494, 39.316704 ], [ -76.652014, 39.31805 ], [ -76.652477, 39.318549 ], [ -76.657105, 39.324785 ], [ -76.657528, 39.325453 ], [ -76.655061, 39.329543 ], [ -76.654032, 39.330291 ], [ -76.651891, 39.331051 ], [ -76.646191, 39.329905 ], [ -76.644591, 39.329705 ], [ -76.642788, 39.329658 ], [ -76.640528, 39.327216 ], [ -76.640014, 39.326736 ], [ -76.6343, 39.324737 ], [ -76.632701, 39.323496 ], [ -76.629888, 39.318154 ], [ -76.62943, 39.317081 ], [ -76.628466, 39.3154 ], [ -76.627862, 39.314749 ], [ -76.625574, 39.312345 ] ] ] } },
{ "type": "Feature", "properties": { "csa_name": "Pigtown/Carroll Park" }, "geometry": { "type": "Polygon", "coordinates": [ [ [ -76.627539, 39.286057 ], [ -76.625384, 39.282235 ], [ -76.623186, 39.281238 ], [ -76.620207, 39.28027 ], [ -76.61979, 39.280205 ], [ -76.618999, 39.279052 ], [ -76.619237, 39.278248 ], [ -76.62013, 39.276446 ], [ -76.620945, 39.274549 ], [ -76.623596, 39.269332 ], [ -76.625855, 39.268189 ], [ -76.626561, 39.268201 ], [ -76.633472, 39.269545 ], [ -76.63733, 39.27014 ], [ -76.639054, 39.270421 ], [ -76.64737, 39.271164 ], [ -76.653264, 39.271539 ], [ -76.654996, 39.271192 ], [ -76.655243, 39.274924 ], [ -76.654919, 39.275524 ], [ -76.653548, 39.277069 ], [ -76.647977, 39.279075 ], [ -76.646426, 39.279489 ], [ -76.641861, 39.280991 ], [ -76.638979, 39.282402 ], [ -76.637843, 39.282788 ], [ -76.637984, 39.285587 ], [ -76.629019, 39.286009 ], [ -76.627539, 39.286057 ] ] ] } },
{ "type": "Feature", "properties": { "csa_name": "Pimlico/Arlington/Hilltop" }, "geometry": { "type": "Polygon", "coordinates": [ [ [ -76.672386, 39.344643 ], [ -76.672549, 39.344261 ], [ -76.673848, 39.341026 ], [ -76.67671, 39.341841 ], [ -76.677745, 39.342136 ], [ -76.680993, 39.341688 ], [ -76.683519, 39.34294 ], [ -76.686399, 39.344979 ], [ -76.690059, 39.347585 ], [ -76.687608, 39.349407 ], [ -76.685732, 39.350438 ], [ -76.683358, 39.351757 ], [ -76.678871, 39.354136 ], [ -76.675185, 39.355677 ], [ -76.672581, 39.356749 ], [ -76.670774, 39.356482 ], [ -76.670848, 39.356788 ], [ -76.665964, 39.357613 ], [ -76.663489, 39.355404 ], [ -76.660408, 39.355193 ], [ -76.659604, 39.350934 ], [ -76.659133, 39.347887 ], [ -76.659447, 39.346506 ], [ -76.661894, 39.346719 ], [ -76.665551, 39.346678 ], [ -76.668784, 39.346607 ], [ -76.668919, 39.346591 ], [ -76.671397, 39.345195 ], [ -76.672386, 39.344643 ] ] ] } },
{ "type": "Feature", "properties": { "csa_name": "Poppleton/The Terraces/Hollins Market" }, "geometry": { "type": "Polygon", "coordinates": [ [ [ -76.628062, 39.287786 ], [ -76.628021, 39.287165 ], [ -76.627539, 39.286057 ], [ -76.629019, 39.286009 ], [ -76.637984, 39.285587 ], [ -76.638101, 39.287556 ], [ -76.638166, 39.288566 ], [ -76.638365, 39.292295 ], [ -76.638462, 39.294189 ], [ -76.635623, 39.294302 ], [ -76.634132, 39.294354 ], [ -76.631922, 39.294458 ], [ -76.627688, 39.29463 ], [ -76.627503, 39.290128 ], [ -76.627766, 39.288974 ], [ -76.628062, 39.287786 ] ] ] } },
{ "type": "Feature", "properties": { "csa_name": "Sandtown-Winchester/Harlem Park" }, "geometry": { "type": "Polygon", "coordinates": [ [ [ -76.647717, 39.302305 ], [ -76.64865, 39.302917 ], [ -76.651607, 39.30335 ], [ -76.651048, 39.305115 ], [ -76.651191, 39.307766 ], [ -76.651339, 39.30968 ], [ -76.645006, 39.309944 ], [ -76.642514, 39.310089 ], [ -76.640392, 39.3083 ], [ -76.638823, 39.306992 ], [ -76.638033, 39.305597 ], [ -76.636829, 39.303421 ], [ -76.634511, 39.299198 ], [ -76.634475, 39.299142 ], [ -76.633261, 39.296886 ], [ -76.631922, 39.294458 ], [ -76.634132, 39.294354 ], [ -76.635623, 39.294302 ], [ -76.638462, 39.294189 ], [ -76.642696, 39.294009 ], [ -76.64552, 39.293895 ], [ -76.650383, 39.293698 ], [ -76.650477, 39.295072 ], [ -76.650607, 39.298663 ], [ -76.651354, 39.298638 ], [ -76.650177, 39.30107 ], [ -76.647717, 39.302305 ] ] ] } },
{ "type": "Feature", "properties": { "csa_name": "South Baltimore" }, "geometry": { "type": "Polygon", "coordinates": [ [ [ -76.611504, 39.271142 ], [ -76.611754, 39.2727 ], [ -76.608388, 39.272851 ], [ -76.606712, 39.272908 ], [ -76.605158, 39.272981 ], [ -76.599699, 39.271093 ], [ -76.598908, 39.2708 ], [ -76.595079, 39.277199 ], [ -76.592991, 39.277527 ], [ -76.589884, 39.278005 ], [ -76.586588, 39.277306 ], [ -76.577586, 39.271606 ], [ -76.575486, 39.267105 ], [ -76.575218, 39.265652 ], [ -76.575030938913201, 39.2646422283878 ], [ -76.577453, 39.264557 ], [ -76.579474, 39.261521 ], [ -76.583039, 39.261245 ], [ -76.586485, 39.261337 ], [ -76.5848877881227, 39.255371176428497 ], [ -76.589488, 39.254806 ], [ -76.598588, 39.254806 ], [ -76.608288, 39.254706 ], [ -76.610488, 39.254706 ], [ -76.616437, 39.257216 ], [ -76.623289, 39.260106 ], [ -76.623793, 39.265075 ], [ -76.627059, 39.265185 ], [ -76.625855, 39.268189 ], [ -76.623596, 39.269332 ], [ -76.620945, 39.274549 ], [ -76.618719, 39.27391 ], [ -76.618636, 39.272459 ], [ -76.616773, 39.272538 ], [ -76.616111, 39.272553 ], [ -76.615953, 39.270453 ], [ -76.611579, 39.270613 ], [ -76.611504, 39.271142 ] ] ] } },
{ "type": "Feature", "properties": { "csa_name": "Southeastern" }, "geometry": { "type": "Polygon", "coordinates": [ [ [ -76.572687, 39.275007 ], [ -76.570877, 39.276421 ], [ -76.571008, 39.278337 ], [ -76.568512, 39.278417 ], [ -76.5645, 39.278595 ], [ -76.562057, 39.280707 ], [ -76.554581, 39.280977 ], [ -76.547586, 39.281286 ], [ -76.543805, 39.281443 ], [ -76.540512, 39.281573 ], [ -76.535704, 39.281793 ], [ -76.530393, 39.284818 ], [ -76.529592, 39.284852 ], [ -76.529934, 39.283082 ], [ -76.529788, 39.281527 ], [ -76.529781, 39.273101 ], [ -76.529623, 39.272307 ], [ -76.529685, 39.270207 ], [ -76.529788, 39.269722 ], [ -76.529784, 39.264989 ], [ -76.529758, 39.257584 ], [ -76.529785, 39.255781 ], [ -76.529487, 39.247045 ], [ -76.529583866775695, 39.240298142960903 ], [ -76.533245, 39.23925 ], [ -76.538949, 39.245509 ], [ -76.540256, 39.250387 ], [ -76.552735, 39.257472 ], [ -76.563311, 39.25692 ], [ -76.566282, 39.259589 ], [ -76.569016, 39.259221 ], [ -76.571511, 39.260693 ], [ -76.571868, 39.262165 ], [ -76.572224, 39.264741 ], [ -76.575030938913201, 39.2646422283878 ], [ -76.575218, 39.265652 ], [ -76.575486, 39.267105 ], [ -76.577586, 39.271606 ], [ -76.572687, 39.275007 ] ] ] } },
{ "type": "Feature", "properties": { "csa_name": "Southern Park Heights" }, "geometry": { "type": "Polygon", "coordinates": [ [ [ -76.655937, 39.334611 ], [ -76.655964, 39.333549 ], [ -76.655735, 39.333053 ], [ -76.654032, 39.330291 ], [ -76.655061, 39.329543 ], [ -76.657528, 39.325453 ], [ -76.657842, 39.325713 ], [ -76.658867, 39.327068 ], [ -76.661594, 39.326914 ], [ -76.664302, 39.327512 ], [ -76.66589, 39.332968 ], [ -76.666693, 39.333961 ], [ -76.673019, 39.336977 ], [ -76.676243, 39.339098 ], [ -76.677964, 39.339925 ], [ -76.677067, 39.341134 ], [ -76.67671, 39.341841 ], [ -76.673848, 39.341026 ], [ -76.672549, 39.344261 ], [ -76.672386, 39.344643 ], [ -76.671397, 39.345195 ], [ -76.668919, 39.346591 ], [ -76.668784, 39.346607 ], [ -76.665551, 39.346678 ], [ -76.661894, 39.346719 ], [ -76.659447, 39.346506 ], [ -76.659582, 39.345717 ], [ -76.658853, 39.344383 ], [ -76.657193, 39.342303 ], [ -76.658181, 39.340866 ], [ -76.65841, 39.340832 ], [ -76.657829, 39.339069 ], [ -76.656604, 39.337847 ], [ -76.656359, 39.336504 ], [ -76.655937, 39.334611 ] ] ] } },
{ "type": "Feature", "properties": { "csa_name": "Southwest Baltimore" }, "geometry": { "type": "Polygon", "coordinates": [ [ [ -76.646426, 39.279489 ], [ -76.647977, 39.279075 ], [ -76.653548, 39.277069 ], [ -76.654919, 39.275524 ], [ -76.65664, 39.276256 ], [ -76.657608, 39.276041 ], [ -76.658684, 39.278057 ], [ -76.660175, 39.280657 ], [ -76.659026, 39.281384 ], [ -76.65986, 39.282321 ], [ -76.659259, 39.285763 ], [ -76.659436, 39.2862 ], [ -76.662924, 39.287424 ], [ -76.665419, 39.289049 ], [ -76.66653, 39.291022 ], [ -76.669642, 39.293528 ], [ -76.669717, 39.294276 ], [ -76.666711, 39.294412 ], [ -76.664927, 39.294452 ], [ -76.663884, 39.293319 ], [ -76.659353, 39.293352 ], [ -76.656274, 39.293439 ], [ -76.650383, 39.293698 ], [ -76.64552, 39.293895 ], [ -76.642696, 39.294009 ], [ -76.638462, 39.294189 ], [ -76.638365, 39.292295 ], [ -76.638166, 39.288566 ], [ -76.638101, 39.287556 ], [ -76.637984, 39.285587 ], [ -76.637843, 39.282788 ], [ -76.638979, 39.282402 ], [ -76.641861, 39.280991 ], [ -76.646426, 39.279489 ] ] ] } },
{ "type": "Feature", "properties": { "csa_name": "The Waverlies" }, "geometry": { "type": "Polygon", "coordinates": [ [ [ -76.609484, 39.322149 ], [ -76.609456, 39.323443 ], [ -76.609426, 39.3254 ], [ -76.609428, 39.328314 ], [ -76.60943, 39.328495 ], [ -76.609476, 39.330965 ], [ -76.609508, 39.334456 ], [ -76.607537, 39.334483 ], [ -76.607147, 39.334061 ], [ -76.604485, 39.33404 ], [ -76.600197, 39.334038 ], [ -76.595443, 39.33403 ], [ -76.595159, 39.333147 ], [ -76.595115, 39.330136 ], [ -76.595145, 39.328347 ], [ -76.593929, 39.326225 ], [ -76.596764, 39.323456 ], [ -76.597881, 39.32236 ], [ -76.601489, 39.31879 ], [ -76.603351, 39.319181 ], [ -76.605812, 39.319457 ], [ -76.607873, 39.319552 ], [ -76.609509, 39.319519 ], [ -76.609532, 39.320922 ], [ -76.609484, 39.322149 ] ] ] } },
{ "type": "Feature", "properties": { "csa_name": "Unassigned -- Jail" }, "geometry": { "type": "Polygon", "coordinates": [ [ [ -76.611551, 39.301224 ], [ -76.61096, 39.301248 ], [ -76.607269, 39.301361 ], [ -76.606332, 39.297912 ], [ -76.611313, 39.297707 ], [ -76.611551, 39.301224 ] ] ] } },
{ "type": "Feature", "properties": { "csa_name": "Upton/Druid Heights" }, "geometry": { "type": "Polygon", "coordinates": [ [ [ -76.625118, 39.303182 ], [ -76.624132, 39.303841 ], [ -76.620723, 39.304351 ], [ -76.620269, 39.301757 ], [ -76.621822, 39.300465 ], [ -76.624049, 39.298357 ], [ -76.626159, 39.296653 ], [ -76.627291, 39.295635 ], [ -76.627688, 39.29463 ], [ -76.631922, 39.294458 ], [ -76.633261, 39.296886 ], [ -76.634475, 39.299142 ], [ -76.634511, 39.299198 ], [ -76.636829, 39.303421 ], [ -76.638033, 39.305597 ], [ -76.638823, 39.306992 ], [ -76.640392, 39.3083 ], [ -76.642514, 39.310089 ], [ -76.638372, 39.310237 ], [ -76.638331, 39.310237 ], [ -76.636986, 39.310319 ], [ -76.633896, 39.310335 ], [ -76.633658, 39.310341 ], [ -76.632658, 39.309499 ], [ -76.630761, 39.307947 ], [ -76.628783, 39.306355 ], [ -76.626905, 39.304784 ], [ -76.625118, 39.303182 ] ] ] } },
{ "type": "Feature", "properties": { "csa_name": "Westport/Mount Winans/Lakeland" }, "geometry": { "type": "Polygon", "coordinates": [ [ [ -76.65251, 39.258401 ], [ -76.649834, 39.260314 ], [ -76.63733, 39.27014 ], [ -76.633472, 39.269545 ], [ -76.626561, 39.268201 ], [ -76.625855, 39.268189 ], [ -76.627059, 39.265185 ], [ -76.623793, 39.265075 ], [ -76.623289, 39.260106 ], [ -76.624689, 39.260606 ], [ -76.632768, 39.257731 ], [ -76.633708, 39.258598 ], [ -76.634553, 39.255971 ], [ -76.635045, 39.251641 ], [ -76.634109, 39.249845 ], [ -76.62867, 39.243473 ], [ -76.627985, 39.242996 ], [ -76.625756, 39.242103 ], [ -76.621721, 39.241702 ], [ -76.614642, 39.241092 ], [ -76.615641, 39.239922 ], [ -76.618612, 39.237398 ], [ -76.619039, 39.237727 ], [ -76.629853, 39.242338 ], [ -76.632589, 39.243406 ], [ -76.640328, 39.24703 ], [ -76.644212, 39.248924 ], [ -76.647256, 39.25006 ], [ -76.655569, 39.253701 ], [ -76.65986, 39.255509 ], [ -76.657559, 39.256784 ], [ -76.65251, 39.258401 ] ] ] } }
]
}
